[{"OBJECT_NAME":"BEIDOU-2 G3","OBJECT_ID":"2010-024A","EPOCH":"2026-03-14T22:34:47.134848","MEAN_MOTION":1.00274957,"ECCENTRICITY":0.00081005,"INCLINATION":4.291,"RA_OF_ASC_NODE":61.8795,"ARG_OF_PERICENTER":325.5191,"MEAN_ANOMALY":203.4205,"EPHEMERIS_TYPE":0,"CLASSIFICATION_TYPE":"U","NORAD_CAT_ID":36590,"ELEMENT_SET_NO":999,"REV_AT_EPOCH":5782,"BSTAR":0,"MEAN_MOTION_DOT":-1.34e-6,"MEAN_MOTION_DDOT":0},{"OBJECT_NAME":"BADR-5","OBJECT_ID":"2010-025A","EPOCH":"2026-03-14T20:36:50.943744","MEAN_MOTION":1.00272793,"ECCENTRICITY":0.00016738,"INCLINATION":0.0585,"RA_OF_ASC_NODE":113.4718,"ARG_OF_PERICENTER":305.6268,"MEAN_ANOMALY":88.5392,"EPHEMERIS_TYPE":0,"CLASSIFICATION_TYPE":"U","NORAD_CAT_ID":36592,"ELEMENT_SET_NO":999,"REV_AT_EPOCH":5227,"BSTAR":0,"MEAN_MOTION_DOT":1.44e-6,"MEAN_MOTION_DDOT":0},{"OBJECT_NAME":"COMS 1","OBJECT_ID":"2010-032A","EPOCH":"2026-03-14T21:05:55.656096","MEAN_MOTION":1.00272521,"ECCENTRICITY":8.071e-5,"INCLINATION":4.5604,"RA_OF_ASC_NODE":76.7042,"ARG_OF_PERICENTER":289.8327,"MEAN_ANOMALY":250.5899,"EPHEMERIS_TYPE":0,"CLASSIFICATION_TYPE":"U","NORAD_CAT_ID":36744,"ELEMENT_SET_NO":999,"REV_AT_EPOCH":5014,"BSTAR":0,"MEAN_MOTION_DOT":-3.43e-6,"MEAN_MOTION_DDOT":0},{"OBJECT_NAME":"ARABSAT-5A","OBJECT_ID":"2010-032B","EPOCH":"2026-03-14T20:38:05.824032","MEAN_MOTION":1.00276956,"ECCENTRICITY":0.00030252,"INCLINATION":0.0671,"RA_OF_ASC_NODE":44.3538,"ARG_OF_PERICENTER":344.059,"MEAN_ANOMALY":124.1238,"EPHEMERIS_TYPE":0,"CLASSIFICATION_TYPE":"U","NORAD_CAT_ID":36745,"ELEMENT_SET_NO":999,"REV_AT_EPOCH":5770,"BSTAR":0,"MEAN_MOTION_DOT":1.53e-6,"MEAN_MOTION_DDOT":0},{"OBJECT_NAME":"ECHOSTAR 15","OBJECT_ID":"2010-034A","EPOCH":"2026-03-14T21:38:00.081312","MEAN_MOTION":1.00272915,"ECCENTRICITY":0.00019505,"INCLINATION":0.0233,"RA_OF_ASC_NODE":255.86,"ARG_OF_PERICENTER":104.2669,"MEAN_ANOMALY":18.0683,"EPHEMERIS_TYPE":0,"CLASSIFICATION_TYPE":"U","NORAD_CAT_ID":36792,"ELEMENT_SET_NO":999,"REV_AT_EPOCH":5737,"BSTAR":0,"MEAN_MOTION_DOT":-1.0e-8,"MEAN_MOTION_DDOT":0},{"OBJECT_NAME":"NILESAT 201","OBJECT_ID":"2010-037A","EPOCH":"2026-03-14T22:10:04.503936","MEAN_MOTION":1.0027226,"ECCENTRICITY":0.00025341,"INCLINATION":0.0187,"RA_OF_ASC_NODE":188.5505,"ARG_OF_PERICENTER":163.4699,"MEAN_ANOMALY":146.017,"EPHEMERIS_TYPE":0,"CLASSIFICATION_TYPE":"U","NORAD_CAT_ID":36830,"ELEMENT_SET_NO":999,"REV_AT_EPOCH":5743,"BSTAR":0,"MEAN_MOTION_DOT":-5.8e-7,"MEAN_MOTION_DDOT":0},{"OBJECT_NAME":"RASCOM-QAF 1R","OBJECT_ID":"2010-037B","EPOCH":"2026-03-14T03:00:14.670720","MEAN_MOTION":1.00273555,"ECCENTRICITY":0.00064463,"INCLINATION":0.0131,"RA_OF_ASC_NODE":98.9669,"ARG_OF_PERICENTER":251.7801,"MEAN_ANOMALY":228.9515,"EPHEMERIS_TYPE":0,"CLASSIFICATION_TYPE":"U","NORAD_CAT_ID":36831,"ELEMENT_SET_NO":999,"REV_AT_EPOCH":5735,"BSTAR":0,"MEAN_MOTION_DOT":1.8e-7,"MEAN_MOTION_DDOT":0},{"OBJECT_NAME":"AEHF-1 (USA 214)","OBJECT_ID":"2010-039A","EPOCH":"2026-03-14T15:29:53.905920","MEAN_MOTION":1.0027036,"ECCENTRICITY":0.00043018,"INCLINATION":7.9852,"RA_OF_ASC_NODE":69.2769,"ARG_OF_PERICENTER":282.4551,"MEAN_ANOMALY":82.9368,"EPHEMERIS_TYPE":0,"CLASSIFICATION_TYPE":"U","NORAD_CAT_ID":36868,"ELEMENT_SET_NO":999,"REV_AT_EPOCH":5271,"BSTAR":0,"MEAN_MOTION_DOT":1.51e-6,"MEAN_MOTION_DDOT":0},{"OBJECT_NAME":"ZHONGXING-6A","OBJECT_ID":"2010-042A","EPOCH":"2026-03-14T14:47:42.950112","MEAN_MOTION":0.99694829,"ECCENTRICITY":0.00044053,"INCLINATION":3.9804,"RA_OF_ASC_NODE":78.4076,"ARG_OF_PERICENTER":252.1497,"MEAN_ANOMALY":306.0606,"EPHEMERIS_TYPE":0,"CLASSIFICATION_TYPE":"U","NORAD_CAT_ID":37150,"ELEMENT_SET_NO":999,"REV_AT_EPOCH":5693,"BSTAR":0,"MEAN_MOTION_DOT":5.9e-7,"MEAN_MOTION_DDOT":0},{"OBJECT_NAME":"XM-5","OBJECT_ID":"2010-053A","EPOCH":"2026-03-13T15:37:48.824256","MEAN_MOTION":1.00272215,"ECCENTRICITY":0.00037026,"INCLINATION":0.0672,"RA_OF_ASC_NODE":272.3776,"ARG_OF_PERICENTER":254.1479,"MEAN_ANOMALY":123.9981,"EPHEMERIS_TYPE":0,"CLASSIFICATION_TYPE":"U","NORAD_CAT_ID":37185,"ELEMENT_SET_NO":999,"REV_AT_EPOCH":5652,"BSTAR":0,"MEAN_MOTION_DOT":-2.3e-7,"MEAN_MOTION_DDOT":0},{"OBJECT_NAME":"BSAT-3B","OBJECT_ID":"2010-056B","EPOCH":"2026-03-14T22:43:23.808576","MEAN_MOTION":1.0027293,"ECCENTRICITY":0.00013684,"INCLINATION":0.0603,"RA_OF_ASC_NODE":237.186,"ARG_OF_PERICENTER":45.5309,"MEAN_ANOMALY":340.5287,"EPHEMERIS_TYPE":0,"CLASSIFICATION_TYPE":"U","NORAD_CAT_ID":37207,"ELEMENT_SET_NO":999,"REV_AT_EPOCH":5115,"BSTAR":0,"MEAN_MOTION_DOT":-3.51e-6,"MEAN_MOTION_DDOT":0},{"OBJECT_NAME":"BEIDOU-2 G4","OBJECT_ID":"2010-057A","EPOCH":"2026-03-14T21:15:02.282976","MEAN_MOTION":1.00272532,"ECCENTRICITY":0.00080972,"INCLINATION":3.4112,"RA_OF_ASC_NODE":69.481,"ARG_OF_PERICENTER":213.4129,"MEAN_ANOMALY":8.3904,"EPHEMERIS_TYPE":0,"CLASSIFICATION_TYPE":"U","NORAD_CAT_ID":37210,"ELEMENT_SET_NO":999,"REV_AT_EPOCH":5634,"BSTAR":0,"MEAN_MOTION_DOT":-1.11e-6,"MEAN_MOTION_DDOT":0},{"OBJECT_NAME":"SKYTERRA 1","OBJECT_ID":"2010-061A","EPOCH":"2026-03-14T21:43:14.578176","MEAN_MOTION":1.0027244,"ECCENTRICITY":0.00015911,"INCLINATION":4.9235,"RA_OF_ASC_NODE":50.8971,"ARG_OF_PERICENTER":329.24,"MEAN_ANOMALY":16.874,"EPHEMERIS_TYPE":0,"CLASSIFICATION_TYPE":"U","NORAD_CAT_ID":37218,"ELEMENT_SET_NO":999,"REV_AT_EPOCH":5624,"BSTAR":0,"MEAN_MOTION_DOT":-1.16e-6,"MEAN_MOTION_DDOT":0},{"OBJECT_NAME":"HYLAS 1","OBJECT_ID":"2010-065A","EPOCH":"2026-03-14T02:46:51.681216","MEAN_MOTION":1.00652997,"ECCENTRICITY":0.00035867,"INCLINATION":5.4008,"RA_OF_ASC_NODE":74.1792,"ARG_OF_PERICENTER":337.5822,"MEAN_ANOMALY":174.2871,"EPHEMERIS_TYPE":0,"CLASSIFICATION_TYPE":"U","NORAD_CAT_ID":37237,"ELEMENT_SET_NO":999,"REV_AT_EPOCH":593,"BSTAR":0,"MEAN_MOTION_DOT":1.26e-6,"MEAN_MOTION_DDOT":0},{"OBJECT_NAME":"INTELSAT 17 (IS-17)","OBJECT_ID":"2010-065B","EPOCH":"2026-03-14T21:37:38.689536","MEAN_MOTION":1.00271926,"ECCENTRICITY":0.00025412,"INCLINATION":0.0138,"RA_OF_ASC_NODE":173.4432,"ARG_OF_PERICENTER":197.2284,"MEAN_ANOMALY":192.233,"EPHEMERIS_TYPE":0,"CLASSIFICATION_TYPE":"U","NORAD_CAT_ID":37238,"ELEMENT_SET_NO":999,"REV_AT_EPOCH":5230,"BSTAR":0,"MEAN_MOTION_DOT":-2.0e-8,"MEAN_MOTION_DDOT":0},{"OBJECT_NAME":"EUTELSAT KA-SAT 9A","OBJECT_ID":"2010-069A","EPOCH":"2026-03-13T18:51:34.975872","MEAN_MOTION":1.00270252,"ECCENTRICITY":0.00025362,"INCLINATION":0.0572,"RA_OF_ASC_NODE":357.3624,"ARG_OF_PERICENTER":148.4127,"MEAN_ANOMALY":317.5124,"EPHEMERIS_TYPE":0,"CLASSIFICATION_TYPE":"U","NORAD_CAT_ID":37258,"ELEMENT_SET_NO":999,"REV_AT_EPOCH":4305,"BSTAR":0,"MEAN_MOTION_DOT":6.1e-7,"MEAN_MOTION_DDOT":0},{"OBJECT_NAME":"HISPASAT 30W-5","OBJECT_ID":"2010-070A","EPOCH":"2026-03-14T22:03:35.126784","MEAN_MOTION":1.0027126,"ECCENTRICITY":0.00035764,"INCLINATION":0.0321,"RA_OF_ASC_NODE":119.9898,"ARG_OF_PERICENTER":259.4364,"MEAN_ANOMALY":93.9991,"EPHEMERIS_TYPE":0,"CLASSIFICATION_TYPE":"U","NORAD_CAT_ID":37264,"ELEMENT_SET_NO":999,"REV_AT_EPOCH":5224,"BSTAR":0,"MEAN_MOTION_DOT":-2.17e-6,"MEAN_MOTION_DDOT":0},{"OBJECT_NAME":"KOREASAT 6","OBJECT_ID":"2010-070B","EPOCH":"2026-03-14T21:15:02.282976","MEAN_MOTION":1.00270088,"ECCENTRICITY":0.00020525,"INCLINATION":0.0272,"RA_OF_ASC_NODE":153.0273,"ARG_OF_PERICENTER":197.9184,"MEAN_ANOMALY":300.209,"EPHEMERIS_TYPE":0,"CLASSIFICATION_TYPE":"U","NORAD_CAT_ID":37265,"ELEMENT_SET_NO":999,"REV_AT_EPOCH":5582,"BSTAR":0,"MEAN_MOTION_DOT":0,"MEAN_MOTION_DDOT":0},{"OBJECT_NAME":"ELEKTRO-L 1 (GOMS 2)","OBJECT_ID":"2011-001A","EPOCH":"2026-03-14T21:50:58.835616","MEAN_MOTION":1.00170998,"ECCENTRICITY":0.00035764,"INCLINATION":9.4718,"RA_OF_ASC_NODE":55.4463,"ARG_OF_PERICENTER":14.5573,"MEAN_ANOMALY":356.6937,"EPHEMERIS_TYPE":0,"CLASSIFICATION_TYPE":"U","NORAD_CAT_ID":37344,"ELEMENT_SET_NO":999,"REV_AT_EPOCH":5554,"BSTAR":0,"MEAN_MOTION_DOT":-2.46e-6,"MEAN_MOTION_DDOT":0},{"OBJECT_NAME":"BEIDOU-2 IGSO-3","OBJECT_ID":"2011-013A","EPOCH":"2026-03-05T17:18:14.211648","MEAN_MOTION":1.00293315,"ECCENTRICITY":0.00350621,"INCLINATION":62.2726,"RA_OF_ASC_NODE":41.1265,"ARG_OF_PERICENTER":190.7769,"MEAN_ANOMALY":297.326,"EPHEMERIS_TYPE":0,"CLASSIFICATION_TYPE":"U","NORAD_CAT_ID":37384,"ELEMENT_SET_NO":999,"REV_AT_EPOCH":5462,"BSTAR":0,"MEAN_MOTION_DOT":-1.7e-6,"MEAN_MOTION_DDOT":0},{"OBJECT_NAME":"INTELSAT 28 (IS-28)","OBJECT_ID":"2011-016A","EPOCH":"2026-03-14T22:03:05.175360","MEAN_MOTION":1.00271832,"ECCENTRICITY":0.00046009,"INCLINATION":1.5608,"RA_OF_ASC_NODE":83.8285,"ARG_OF_PERICENTER":273.4743,"MEAN_ANOMALY":114.2974,"EPHEMERIS_TYPE":0,"CLASSIFICATION_TYPE":"U","NORAD_CAT_ID":37392,"ELEMENT_SET_NO":999,"REV_AT_EPOCH":5234,"BSTAR":0,"MEAN_MOTION_DOT":-2.25e-6,"MEAN_MOTION_DDOT":0},{"OBJECT_NAME":"YAHSAT 1A","OBJECT_ID":"2011-016B","EPOCH":"2026-03-13T07:58:38.641152","MEAN_MOTION":1.00272305,"ECCENTRICITY":0.00035915,"INCLINATION":0.0141,"RA_OF_ASC_NODE":171.807,"ARG_OF_PERICENTER":192.677,"MEAN_ANOMALY":338.6301,"EPHEMERIS_TYPE":0,"CLASSIFICATION_TYPE":"U","NORAD_CAT_ID":37393,"ELEMENT_SET_NO":999,"REV_AT_EPOCH":4144,"BSTAR":0,"MEAN_MOTION_DOT":1.01e-6,"MEAN_MOTION_DDOT":0},{"OBJECT_NAME":"SBIRS GEO-1 (USA 230)","OBJECT_ID":"2011-019A","EPOCH":"2026-03-14T22:26:55.389120","MEAN_MOTION":1.0027226,"ECCENTRICITY":0.0002331,"INCLINATION":4.3296,"RA_OF_ASC_NODE":53.0999,"ARG_OF_PERICENTER":298.5458,"MEAN_ANOMALY":209.4193,"EPHEMERIS_TYPE":0,"CLASSIFICATION_TYPE":"U","NORAD_CAT_ID":37481,"ELEMENT_SET_NO":999,"REV_AT_EPOCH":5445,"BSTAR":0,"MEAN_MOTION_DOT":1.02e-6,"MEAN_MOTION_DDOT":0},{"OBJECT_NAME":"TELSTAR 14R","OBJECT_ID":"2011-021A","EPOCH":"2026-03-14T18:28:44.258016","MEAN_MOTION":1.00268389,"ECCENTRICITY":0.00022272,"INCLINATION":0.0254,"RA_OF_ASC_NODE":147.117,"ARG_OF_PERICENTER":212.6634,"MEAN_ANOMALY":26.795,"EPHEMERIS_TYPE":0,"CLASSIFICATION_TYPE":"U","NORAD_CAT_ID":37602,"ELEMENT_SET_NO":999,"REV_AT_EPOCH":5488,"BSTAR":0,"MEAN_MOTION_DOT":0,"MEAN_MOTION_DDOT":0}]
